"MEAN_MOTION","ECCENTRICITY","INCLINATION","RA_OF_ASC_NODE","ARG_OF_PERICENTER","MEAN_ANOMALY","SEMIMAJOR_AXIS","PERIOD","APOAPSIS","PERIAPSIS","OBJECT_TYPE","RCS_SIZE","OBJECT_AGE","CENT_FOCUS_DIST"
14.31534073,0.0020997,65.0101,74.9863,265.4343,94.4343,7164.745,100.591,801.653,771.566,"DEBRIS","SMALL",37,15.0438150765
14.32203904,0.0020259,65.0118,68.1692,266.1301,93.7468,7162.511,100.544,798.886,769.865,"DEBRIS","SMALL",37,14.5105310349
14.3225505,0.0020164,65.0109,66.751,265.1554,94.7228,7162.34,100.541,798.647,769.763,"DEBRIS","SMALL",37,14.442142376
14.31764024,0.002106,65.0121,72.7092,267.7618,92.1055,7163.977,100.575,800.93,770.755,"DEBRIS","SMALL",37,15.087335562
14.31787936,0.0020546,65.0106,71.8942,266.803,93.0704,7163.898,100.574,800.482,771.044,"DEBRIS","SMALL",37,14.7189448308
14.31478837,0.0020593,65.0105,75.1205,264.7015,95.172,7164.929,100.595,801.549,772.039,"DEBRIS","SMALL",37,14.7547382897
14.31626658,0.0021453,65.0077,73.2078,266.7221,93.141,7164.436,100.585,801.671,770.931,"DEBRIS","SMALL",37,15.3698645508
14.31718177,0.0020488,65.0067,71.6385,269.7213,90.1524,7164.13,100.578,800.673,771.318,"DEBRIS","SMALL",37,14.677869544
14.31879558,0.0021194,65.0083,69.9109,267.9483,91.9174,7163.592,100.567,800.64,770.275,"DEBRIS","SMALL",37,15.1825168848
14.31879656,0.0021335,65.0089,69.4993,271.1644,88.6996,7163.592,100.567,800.74,770.173,"DEBRIS","SMALL",37,15.283523532
14.32040088,0.0021108,65.0116,69.2371,265.4101,94.4573,7163.057,100.556,800.042,769.802,"DEBRIS","SMALL",37,15.1197807156
14.32044102,0.0021866,65.0112,68.8123,270.6802,89.1777,7163.043,100.556,800.571,769.246,"DEBRIS","SMALL",37,15.6627098238
14.31698121,0.0021127,65.0094,73.1315,266.7823,93.0844,7164.197,100.58,801.198,770.927,"DEBRIS","SMALL",37,15.1357990019
14.31993281,0.002074,65.0099,68.9889,266.3096,93.5617,7163.213,100.559,799.934,770.221,"DEBRIS","SMALL",37,14.856503762
14.31992414,0.002115,65.0093,71.4041,271.4927,88.3735,7163.216,100.559,800.231,769.931,"DEBRIS","SMALL",37,15.15020184
14.31790812,0.0021373,65.0097,72.1201,269.777,90.0865,7163.888,100.573,801.064,770.442,"DEBRIS","SMALL",37,15.3113778224
14.31747836,0.0020894,65.007,71.519,270.3743,89.4947,7164.031,100.576,800.865,770.928,"DEBRIS","SMALL",37,14.9685263714
14.31763369,0.0021579,65.0072,71.2658,270.2216,89.6396,7163.98,100.575,801.304,770.385,"DEBRIS","SMALL",37,15.459152442
14.32071889,0.0021518,65.0113,68.3314,270.6599,89.202,7162.951,100.554,800.229,769.402,"DEBRIS","SMALL",37,15.4132379618
14.31963112,0.002171,65.0142,71.2361,269.6095,90.2502,7163.313,100.561,800.73,769.627,"DEBRIS","SMALL",37,15.551552523
14.31963919,0.0020486,65.011,70.2942,266.5385,93.3357,7163.311,100.561,799.851,770.501,"DEBRIS","SMALL",37,14.6747589146
14.31933026,0.0021425,65.0143,71.1688,268.4385,91.4245,7163.414,100.563,800.626,769.931,"DEBRIS","SMALL",37,15.347614495
14.31935109,0.0021675,65.0115,70.2608,270.4062,89.4539,7163.407,100.563,800.799,769.745,"DEBRIS","SMALL",37,15.5266846725
14.31878615,0.0021245,65.0125,71.4083,268.1427,91.7224,7163.595,100.567,800.679,770.241,"DEBRIS","SMALL",37,15.2190575775
14.31832068,0.0020536,65.0066,70.6633,268.8515,91.0216,7163.75,100.57,800.327,770.904,"DEBRIS","SMALL",37,14.711477
14.31741093,0.0021361,65.0122,72.9582,270.3643,89.4993,7164.054,100.577,801.222,770.616,"DEBRIS","SMALL",37,15.3031357494
14.31816875,0.0021164,65.011,72.5352,267.2387,92.6275,7163.801,100.572,800.828,770.505,"DEBRIS","SMALL",37,15.1614684364
14.31898331,0.002064,65.0087,70.4642,268.7629,91.1091,7163.529,100.566,800.18,770.609,"DEBRIS","SMALL",37,14.785523856
14.31812198,0.0021764,65.0112,71.7069,269.7048,90.1543,7163.817,100.572,801.273,770.09,"DEBRIS","SMALL",37,15.5913313188
14.31749817,0.002138,65.0061,71.6075,268.9145,90.949,7164.025,100.576,801.207,770.573,"DEBRIS","SMALL",37,15.31668545
15.03212619,0.0031881,75.8286,251.201,248.1901,287.0166,6935.135,95.795,579.11,534.89,"DEBRIS","SMALL",47,22.1099038935
12.21656518,0.0143798,74.054,186.5444,179.4414,180.6808,7963.472,117.873,1699.85,1470.823,"DEBRIS","SMALL",33,114.5131346656
12.38229995,0.0100323,74.091,147.0258,332.7833,26.7973,7892.252,116.295,1593.295,1434.94,"DEBRIS","SMALL",33,79.1774397396
12.20841648,0.0128826,74.0302,123.6327,152.4772,208.3163,7967.015,117.951,1691.516,1486.244,"DEBRIS","SMALL",33,102.635867439
12.18499212,0.0130847,74.0796,244.7698,201.4526,158.0993,7977.222,118.178,1703.466,1494.707,"DEBRIS","SMALL",33,104.3795567034
12.21481464,0.0178222,74.0485,147.1152,138.5344,290.3931,7964.232,117.89,1728.037,1444.157,"DEBRIS","SMALL",33,141.9401355504
12.20675475,0.0144942,74.0567,163.9935,144.0353,217.0542,7967.738,117.967,1705.089,1474.117,"DEBRIS","SMALL",33,115.4859881196
12.21117039,0.0181381,74.0448,160.7115,155.8477,16.809,7965.817,117.925,1732.167,1443.197,"DEBRIS","SMALL",33,144.4847853277
12.16928695,0.0145878,74.0955,298.938,226.4096,132.4754,7984.084,118.331,1722.419,1489.479,"DEBRIS","SMALL",33,116.4702205752
12.28895495,0.0116561,73.967,272.6585,37.0897,323.8125,7932.167,117.178,1646.491,1461.574,"DEBRIS","SMALL",33,92.4581317687
12.24558546,0.0132563,73.9883,355.2271,98.5366,333.1703,7950.885,117.593,1678.149,1467.351,"DEBRIS","SMALL",33,105.3993168255
12.14709807,0.018731,74.2313,89.6906,101.9701,260.2396,7993.804,118.547,1765.401,1465.937,"DEBRIS","SMALL",33,149.731942724
12.26935032,0.0192211,73.8564,176.5315,188.0711,171.7221,7940.615,117.366,1715.107,1409.852,"DEBRIS","SMALL",33,152.6273549765
14.16893442,0.0107414,71.1125,150.0405,248.2672,110.6991,7214.015,101.631,913.369,758.391,"DEBRIS","SMALL",32,77.488620721
14.74056178,0.0081609,71.2879,214.4549,65.0614,108.5253,7026.286,97.69,705.492,590.81,"DEBRIS","SMALL",32,57.3408174174
13.918453,0.0145763,71.1458,99.308,41.9123,319.3036,7300.308,103.46,1028.585,815.762,"DEBRIS","SMALL",32,106.4114795004
14.08661822,0.0086293,71.2197,68.1017,268.4643,90.6592,7242.092,102.225,926.451,801.462,"DEBRIS","SMALL",32,62.4941844956
14.0052743,0.0097566,70.8374,163.6945,253.1896,105.8498,7270.106,102.818,962.903,821.04,"DEBRIS","SMALL",32,70.9315161996
14.06999832,0.0092274,71.1157,27.1343,149.0701,211.59,7247.793,102.345,936.537,802.78,"DEBRIS","SMALL",32,66.8782851282
14.08592316,0.0085973,71.117,340.5916,112.2934,248.733,7242.33,102.23,926.459,801.93,"DEBRIS","SMALL",32,62.264483709
14.22188723,0.0099243,71.0871,11.6414,256.8791,102.1246,7196.097,101.252,889.378,746.546,"DEBRIS","SMALL",32,71.4162254571
14.27381788,0.0004781,71.0139,193.2623,201.3482,333.0411,7178.633,100.884,803.93,797.066,"DEBRIS","SMALL",32,3.4321044373
13.99976983,0.0103208,70.6909,59.1879,210.1191,149.3963,7272.012,102.859,968.93,818.824,"DEBRIS","SMALL",32,75.0529814496
14.37488906,0.0037212,71.1948,327.5444,14.0441,346.172,7144.944,100.175,793.397,740.221,"DEBRIS","SMALL",32,26.5877656128
13.95662913,0.0100176,71.3004,30.1559,294.1073,78.7035,7286.99,103.177,981.853,835.856,"DEBRIS","SMALL",32,72.998151024
14.45198051,0.0031913,70.7894,161.6246,344.8453,15.1724,7119.513,99.64,764.098,718.657,"DEBRIS","SMALL",32,22.7205018369
13.94241689,0.0129121,71.1949,21.9087,189.6578,170.2052,7291.941,103.282,1007.96,819.651,"DEBRIS","SMALL",32,94.1542713861
13.99514091,0.0109498,70.8945,260.5967,225.248,311.0035,7273.615,102.893,975.125,815.836,"DEBRIS","SMALL",32,79.644629527
14.00760193,0.009275,70.8506,164.8262,251.0229,108.0818,7269.301,102.801,958.589,823.743,"DEBRIS","SMALL",32,67.422766775
14.10147638,0.0094017,71.1781,37.0748,352.5215,7.4497,7237.004,102.117,926.909,790.828,"DEBRIS","SMALL",32,68.0401405068
13.90593445,0.0123339,71.1583,61.7394,343.3345,29.3853,7304.689,103.553,1016.649,836.459,"DEBRIS","SMALL",32,90.0953036571
14.27595015,0.0090032,85.9787,161.7532,53.613,307.3324,7177.918,100.869,864.407,735.159,"DEBRIS","SMALL",27,64.6242313376
14.40417819,0.0009038,86.3819,325.5351,342.6829,17.406,7135.255,99.971,763.569,750.671,"DEBRIS","SMALL",27,6.448843469
14.38107261,0.0072985,86.292,305.0515,181.3434,240.8922,7142.896,100.132,816.893,712.628,"DEBRIS","SMALL",27,52.132426456
13.90488522,0.0259043,86.3861,137.1092,245.908,124.817,7305.056,103.561,1116.154,737.689,"DEBRIS","SMALL",27,189.2323621408
14.74586827,0.0014531,86.4079,285.8212,23.1415,349.4106,7024.6,97.654,656.673,636.258,"DEBRIS","SMALL",27,10.20744626
14.39048858,0.0062872,86.1722,233.1956,212.8297,211.1844,7139.78,100.066,806.534,716.756,"DEBRIS","SMALL",27,44.889224816
14.75611793,0.0092201,86.3669,313.0495,193.9887,165.8777,7021.347,97.587,707.949,578.474,"DEBRIS","SMALL",27,64.7375214747
14.73052782,0.0005489,86.3667,270.2508,332.1611,85.6426,7029.476,97.756,655.2,647.483,"DEBRIS","SMALL",27,3.8584793764
14.52786406,0.0042851,86.2094,215.7656,330.3688,205.6219,7094.699,99.12,746.966,686.163,"DEBRIS","SMALL",27,30.4014946849
14.6228669,0.0044906,86.1973,181.8651,192.899,167.1077,7063.937,98.476,717.523,654.081,"DEBRIS","SMALL",27,31.7213154922
14.51723004,0.0133018,86.346,43.7739,254.827,165.8643,7098.164,99.192,814.447,625.61,"DEBRIS","SMALL",27,94.4183578952
14.07863033,0.0192992,86.4239,111.5374,201.6269,157.6684,7244.831,102.283,1006.515,726.876,"DEBRIS","SMALL",27,139.8194424352
4.24852917,0.5809323,64.3038,262.2807,1.4269,359.6474,16103.098,338.941,19079.773,370.153,"DEBRIS","SMALL",16,9354.8097582654
4.22770042,0.5764788,64.84,274.5129,340.2482,4.3419,16155.945,340.611,19091.37,464.25,"DEBRIS","SMALL",16,9313.559786466
12.42620556,0.0021444,73.594,102.4937,128.1235,45.9255,7873.651,115.884,1512.4,1478.632,"DEBRIS","SMALL",37,16.8842572044
12.38856802,0.0075095,73.6331,323.8701,244.2602,115.0676,7889.59,116.236,1570.702,1452.208,"DEBRIS","SMALL",37,59.246876105
13.78599486,0.0026416,74.0247,160.7289,276.7686,93.9833,7346.995,104.454,988.268,949.453,"DEBRIS","SMALL",37,19.407821992
12.43568324,0.0048499,73.6198,160.4856,91.1224,269.5378,7869.65,115.796,1529.682,1453.348,"DEBRIS","SMALL",37,38.167015535
12.41366601,0.0034549,73.7011,277.2575,8.8404,351.3241,7878.952,116.001,1528.038,1473.596,"DEBRIS","SMALL",37,27.2209912648
